CCSDS_OMM_VERS = 2.0
CREATION_DATE  = 
ORIGINATOR     = 

OBJECT_NAME    = ALOS (DAICHI)
OBJECT_ID      = 2006-002A
CENTER_NAME    = EARTH
REF_FRAME      = TEME
TIME_SYSTEM    = UTC
MEAN_ELEMENT_THEORY = SGP/SGP4

EPOCH          = 2025-12-17T17:37:14.152512
MEAN_MOTION    = 14.69501788
ECCENTRICITY   = .00013612
INCLINATION    = 98.1098
RA_OF_ASC_NODE = 303.1864
ARG_OF_PERICENTER = 113.5739
MEAN_ANOMALY   = 246.5610

EPHEMERIS_TYPE = 0
CLASSIFICATION_TYPE = U
NORAD_CAT_ID   = 28931
ELEMENT_SET_NO = 999
REV_AT_EPOCH   = 6144
BSTAR          = .19545051E-3
MEAN_MOTION_DOT = .111E-4
MEAN_MOTION_DDOT = 0

CCSDS_OMM_VERS = 2.0
CREATION_DATE  = 
ORIGINATOR     = 

OBJECT_NAME    = H-2A R/B
OBJECT_ID      = 2006-002B
CENTER_NAME    = EARTH
REF_FRAME      = TEME
TIME_SYSTEM    = UTC
MEAN_ELEMENT_THEORY = SGP/SGP4

EPOCH          = 2025-12-20T21:52:03.591552
MEAN_MOTION    = 15.14722166
ECCENTRICITY   = .00548075
INCLINATION    = 98.2327
RA_OF_ASC_NODE = 130.3283
ARG_OF_PERICENTER = 148.6556
MEAN_ANOMALY   = 211.7961

EPHEMERIS_TYPE = 0
CLASSIFICATION_TYPE = U
NORAD_CAT_ID   = 28932
ELEMENT_SET_NO = 999
REV_AT_EPOCH   = 8250
BSTAR          = .35970554E-3
MEAN_MOTION_DOT = .684E-4
MEAN_MOTION_DDOT = 0

CCSDS_OMM_VERS = 2.0
CREATION_DATE  = 
ORIGINATOR     = 

OBJECT_NAME    = RESURS-DK 1
OBJECT_ID      = 2006-021A
CENTER_NAME    = EARTH
REF_FRAME      = TEME
TIME_SYSTEM    = UTC
MEAN_ELEMENT_THEORY = SGP/SGP4

EPOCH          = 2025-12-20T16:50:56.206752
MEAN_MOTION    = 15.12200991
ECCENTRICITY   = .00068548
INCLINATION    = 69.9339
RA_OF_ASC_NODE = 81.2610
ARG_OF_PERICENTER = 252.2232
MEAN_ANOMALY   = 107.8186

EPHEMERIS_TYPE = 0
CLASSIFICATION_TYPE = U
NORAD_CAT_ID   = 29228
ELEMENT_SET_NO = 999
REV_AT_EPOCH   = 7558
BSTAR          = .10511178E-3
MEAN_MOTION_DOT = .1712E-4
MEAN_MOTION_DDOT = 0

CCSDS_OMM_VERS = 2.0
CREATION_DATE  = 
ORIGINATOR     = 

OBJECT_NAME    = CZ-4B R/B
OBJECT_ID      = 2006-046C
CENTER_NAME    = EARTH
REF_FRAME      = TEME
TIME_SYSTEM    = UTC
MEAN_ELEMENT_THEORY = SGP/SGP4

EPOCH          = 2025-12-20T13:23:46.682016
MEAN_MOTION    = 15.15942728
ECCENTRICITY   = .0033935
INCLINATION    = 97.5719
RA_OF_ASC_NODE = 34.6755
ARG_OF_PERICENTER = 179.1559
MEAN_ANOMALY   = 180.9737

EPHEMERIS_TYPE = 0
CLASSIFICATION_TYPE = U
NORAD_CAT_ID   = 29507
ELEMENT_SET_NO = 999
REV_AT_EPOCH   = 4805
BSTAR          = .15153E-3
MEAN_MOTION_DOT = .2877E-4
MEAN_MOTION_DDOT = 0

CCSDS_OMM_VERS = 2.0
CREATION_DATE  = 
ORIGINATOR     = 

OBJECT_NAME    = CZ-2C R/B
OBJECT_ID      = 2007-010B
CENTER_NAME    = EARTH
REF_FRAME      = TEME
TIME_SYSTEM    = UTC
MEAN_ELEMENT_THEORY = SGP/SGP4

EPOCH          = 2025-12-20T21:23:20.221728
MEAN_MOTION    = 14.20212872
ECCENTRICITY   = .00594597
INCLINATION    = 98.3976
RA_OF_ASC_NODE = 107.1318
ARG_OF_PERICENTER = 162.3081
MEAN_ANOMALY   = 198.0186

EPHEMERIS_TYPE = 0
CLASSIFICATION_TYPE = U
NORAD_CAT_ID   = 31114
ELEMENT_SET_NO = 999
REV_AT_EPOCH   = 96853
BSTAR          = .60715131E-4
MEAN_MOTION_DOT = .91E-6
MEAN_MOTION_DDOT = 0

CCSDS_OMM_VERS = 2.0
CREATION_DATE  = 
ORIGINATOR     = 

OBJECT_NAME    = COSMO-SKYMED 1
OBJECT_ID      = 2007-023A
CENTER_NAME    = EARTH
REF_FRAME      = TEME
TIME_SYSTEM    = UTC
MEAN_ELEMENT_THEORY = SGP/SGP4

EPOCH          = 2025-12-20T22:47:09.130272
MEAN_MOTION    = 14.95824569
ECCENTRICITY   = .00015611
INCLINATION    = 97.8838
RA_OF_ASC_NODE = 180.4025
ARG_OF_PERICENTER = 82.7784
MEAN_ANOMALY   = 277.3614

EPHEMERIS_TYPE = 0
CLASSIFICATION_TYPE = U
NORAD_CAT_ID   = 31598
ELEMENT_SET_NO = 999
REV_AT_EPOCH   = 313
BSTAR          = .24449161E-3
MEAN_MOTION_DOT = .2671E-4
MEAN_MOTION_DDOT = 0

CCSDS_OMM_VERS = 2.0
CREATION_DATE  = 
ORIGINATOR     = 

OBJECT_NAME    = COSMOS 2428
OBJECT_ID      = 2007-029A
CENTER_NAME    = EARTH
REF_FRAME      = TEME
TIME_SYSTEM    = UTC
MEAN_ELEMENT_THEORY = SGP/SGP4

EPOCH          = 2025-12-20T10:55:40.288224
MEAN_MOTION    = 14.12892565
ECCENTRICITY   = .00041012
INCLINATION    = 70.9365
RA_OF_ASC_NODE = 9.6800
ARG_OF_PERICENTER = 12.6767
MEAN_ANOMALY   = 347.4456

EPHEMERIS_TYPE = 0
CLASSIFICATION_TYPE = U
NORAD_CAT_ID   = 31792
ELEMENT_SET_NO = 999
REV_AT_EPOCH   = 95290
BSTAR          = .10885729E-3
MEAN_MOTION_DOT = .155E-5
MEAN_MOTION_DDOT = 0

CCSDS_OMM_VERS = 2.0
CREATION_DATE  = 
ORIGINATOR     = 

OBJECT_NAME    = SL-16 R/B
OBJECT_ID      = 2007-029B
CENTER_NAME    = EARTH
REF_FRAME      = TEME
TIME_SYSTEM    = UTC
MEAN_ELEMENT_THEORY = SGP/SGP4

EPOCH          = 2025-12-20T07:33:55.160064
MEAN_MOTION    = 14.14816205
ECCENTRICITY   = .00019275
INCLINATION    = 70.9758
RA_OF_ASC_NODE = 339.2329
ARG_OF_PERICENTER = 262.1549
MEAN_ANOMALY   = 196.5248

EPHEMERIS_TYPE = 0
CLASSIFICATION_TYPE = U
NORAD_CAT_ID   = 31793
ELEMENT_SET_NO = 999
REV_AT_EPOCH   = 95414
BSTAR          = .12929241E-3
MEAN_MOTION_DOT = .202E-5
MEAN_MOTION_DDOT = 0

CCSDS_OMM_VERS = 2.0
CREATION_DATE  = 
ORIGINATOR     = 

OBJECT_NAME    = KORONAS-FOTON
OBJECT_ID      = 2009-003A
CENTER_NAME    = EARTH
REF_FRAME      = TEME
TIME_SYSTEM    = UTC
MEAN_ELEMENT_THEORY = SGP/SGP4

EPOCH          = 2025-12-20T11:31:39.197856
MEAN_MOTION    = 15.41342280
ECCENTRICITY   = .00134236
INCLINATION    = 82.4305
RA_OF_ASC_NODE = 358.0837
ARG_OF_PERICENTER = 84.3031
MEAN_ANOMALY   = 275.9746

EPHEMERIS_TYPE = 0
CLASSIFICATION_TYPE = U
NORAD_CAT_ID   = 33504
ELEMENT_SET_NO = 999
REV_AT_EPOCH   = 93353
BSTAR          = .16731494E-3
MEAN_MOTION_DOT = .7035E-4
MEAN_MOTION_DDOT = 0

CCSDS_OMM_VERS = 2.0
CREATION_DATE  = 
ORIGINATOR     = 

OBJECT_NAME    = CZ-2C R/B
OBJECT_ID      = 2011-030B
CENTER_NAME    = EARTH
REF_FRAME      = TEME
TIME_SYSTEM    = UTC
MEAN_ELEMENT_THEORY = SGP/SGP4

EPOCH          = 2025-12-20T21:44:08.979072
MEAN_MOTION    = 14.80924851
ECCENTRICITY   = .00514023
INCLINATION    = 97.8425
RA_OF_ASC_NODE = 308.8320
ARG_OF_PERICENTER = 246.2706
MEAN_ANOMALY   = 181.1364

EPHEMERIS_TYPE = 0
CLASSIFICATION_TYPE = U
NORAD_CAT_ID   = 37731
ELEMENT_SET_NO = 999
REV_AT_EPOCH   = 77843
BSTAR          = .12746389E-3
MEAN_MOTION_DOT = .953E-5
MEAN_MOTION_DDOT = 0

CCSDS_OMM_VERS = 2.0
CREATION_DATE  = 
ORIGINATOR     = 

OBJECT_NAME    = H-2A R/B
OBJECT_ID      = 2012-025E
CENTER_NAME    = EARTH
REF_FRAME      = TEME
TIME_SYSTEM    = UTC
MEAN_ELEMENT_THEORY = SGP/SGP4

EPOCH          = 2025-12-20T21:00:05.237568
MEAN_MOTION    = 14.94492080
ECCENTRICITY   = .00443053
INCLINATION    = 98.4608
RA_OF_ASC_NODE = 310.7327
ARG_OF_PERICENTER = 209.1954
MEAN_ANOMALY   = 150.6787

EPHEMERIS_TYPE = 0
CLASSIFICATION_TYPE = U
NORAD_CAT_ID   = 38341
ELEMENT_SET_NO = 999
REV_AT_EPOCH   = 73644
BSTAR          = .16135742E-3
MEAN_MOTION_DOT = .1705E-4
MEAN_MOTION_DDOT = 0

CCSDS_OMM_VERS = 2.0
CREATION_DATE  = 
ORIGINATOR     = 

OBJECT_NAME    = SHIJIAN-16 (SJ-16)
OBJECT_ID      = 2013-057A
CENTER_NAME    = EARTH
REF_FRAME      = TEME
TIME_SYSTEM    = UTC
MEAN_ELEMENT_THEORY = SGP/SGP4

EPOCH          = 2025-12-20T22:00:34.331328
MEAN_MOTION    = 14.92007207
ECCENTRICITY   = .0017898
INCLINATION    = 74.9727
RA_OF_ASC_NODE = 334.1813
ARG_OF_PERICENTER = 300.8162
MEAN_ANOMALY   = 59.1264

EPHEMERIS_TYPE = 0
CLASSIFICATION_TYPE = U
NORAD_CAT_ID   = 39358
ELEMENT_SET_NO = 999
REV_AT_EPOCH   = 65975
BSTAR          = .18535019E-3
MEAN_MOTION_DOT = .1856E-4
MEAN_MOTION_DDOT = 0

