ALOS (DAICHI)           
1 28931U 06002A   25351.73419158  .00001110  00000+0  19545-3 0  9994
2 28931  98.1098 303.1864 0001361 113.5739 246.5610 14.69501788 61443
H-2A R/B                
1 28932U 06002B   25354.91115268  .00006840  00000+0  35971-3 0  9999
2 28932  98.2327 130.3283 0054807 148.6556 211.7961 15.14722166 82503
RESURS-DK 1             
1 29228U 06021A   25354.70203943  .00001712  00000+0  10511-3 0  9990
2 29228  69.9339  81.2610 0006854 252.2232 107.8186 15.12200991 75589
CZ-4B R/B               
1 29507U 06046C   25354.55817919  .00002877  00000+0  15153-3 0  9994
2 29507  97.5719  34.6755 0033935 179.1559 180.9737 15.15942728 48059
CZ-2C R/B               
1 31114U 07010B   25354.89120627  .00000091  00000+0  60715-4 0  9994
2 31114  98.3976 107.1318 0059459 162.3081 198.0186 14.20212872968531
COSMO-SKYMED 1          
1 31598U 07023A   25354.94941123  .00002671  00000+0  24449-3 0  9991
2 31598  97.8838 180.4025 0001561  82.7784 277.3614 14.95824569  3130
COSMOS 2428             
1 31792U 07029A   25354.45532741  .00000155  00000+0  10886-3 0  9996
2 31792  70.9365   9.6800 0004101  12.6767 347.4456 14.12892565952903
SL-16 R/B               
1 31793U 07029B   25354.31522176  .00000202  00000+0  12929-3 0  9996
2 31793  70.9758 339.2329 0001927 262.1549 196.5248 14.14816205954140
KORONAS-FOTON           
1 33504U 09003A   25354.48031479  .00007035  00000+0  16731-3 0  9997
2 33504  82.4305 358.0837 0013423  84.3031 275.9746 15.41342280933538
CZ-2C R/B               
1 37731U 11030B   25354.90565948  .00000953  00000+0  12746-3 0  9990
2 37731  97.8425 308.8320 0051402 246.2706 181.1364 14.80924851778436
H-2A R/B                
1 38341U 12025E   25354.87506062  .00001705  00000+0  16136-3 0  9994
2 38341  98.4608 310.7327 0044305 209.1954 150.6787 14.94492080736444
SHIJIAN-16 (SJ-16)      
1 39358U 13057A   25354.91706402  .00001856  00000+0  18535-3 0  9996
2 39358  74.9727 334.1813 0017898 300.8162  59.1264 14.92007207659753
